{
"type": "FeatureCollection",
"name": "western_states",
"crs": { "type": "name", "properties": { "name": "urn:ogc:def:crs:OGC:1.3:CRS84" } },
"features": [
{ "type": "Feature", "properties": { "STUSPS": "WA", "NAME": "Washington" }, "geometry": { "type": "MultiPolygon", "coordinates": [ [ [ [ -122.753016827999915, 48.992514547000084 ], [ -117.038151102999919, 48.992514547000084 ], [ -117.044036908276667, 46.378470884923388 ], [ -116.94208378333991, 46.259720884711044 ], [ -116.909100384675014, 46.162479673997723 ], [ -116.960638470788751, 46.104764830032877 ], [ -116.878826947305754, 46.001468931845693 ], [ -119.002362103028588, 45.999515806709098 ], [ -119.044549603281553, 45.964481627325199 ], [ -119.09332890030845, 45.948832213236017 ], [ -119.575262494268657, 45.927591978387056 ], [ -119.662469524648827, 45.871830260458125 ], [ -119.934198041406432, 45.837967955256886 ], [ -120.127240033101032, 45.789091001748318 ], [ -120.229901166405682, 45.737064635024865 ], [ -120.290106243907985, 45.740409361203035 ], [ -120.362591596325103, 45.715238463084575 ], [ -120.470159955017891, 45.710135923833775 ], [ -120.63141483792441, 45.729056822414407 ], [ -120.66862186930382, 45.703373227992074 ], [ -120.900116010045792, 45.641800963343769 ], [ -121.03888554133465, 45.653324400300789 ], [ -121.154974408042449, 45.622220885085767 ], [ -121.204241985679062, 45.684940610920421 ], [ -121.271844524804976, 45.70876873578851 ], [ -121.570233197204288, 45.729447447441714 ], [ -121.71752323560878, 45.71001385345653 ], [ -121.792645305836174, 45.721390807040109 ], [ -121.971063275150016, 45.642338071744575 ], [ -122.261053509911505, 45.566312681984641 ], [ -122.341619915726483, 45.587089049220197 ], [ -122.42611698571028, 45.588187681716136 ], [ -122.539617963298326, 45.621879087849607 ], [ -122.673114056268673, 45.625736510331649 ], [ -122.721600384749934, 45.648881040727417 ], [ -122.754486126933159, 45.701908385263721 ], [ -122.753143352783468, 45.78232830680588 ], [ -122.779852338014962, 45.81987713542145 ], [ -122.774041791295588, 45.881376158382977 ], [ -122.806536907552186, 45.978129088486639 ], [ -122.850018353264375, 46.011503111279524 ], [ -122.891741985903877, 46.092484556916759 ], [ -122.966693157962823, 46.135746274870655 ], [ -123.111834760066074, 46.186478697034204 ], [ -123.297938515999931, 46.151544598000044 ], [ -123.393361813999945, 46.204137166000066 ], [ -123.455676105999942, 46.267044338000062 ], [ -123.603179490999935, 46.26007721600007 ], [ -123.662668423999946, 46.270249742000033 ], [ -123.692967461999899, 46.305202251000082 ], [ -123.764512917999923, 46.273267310000051 ], [ -123.806582777999893, 46.283396230000051 ], [ -123.873033488999909, 46.240171721000081 ], [ -123.925174298999934, 46.251540584000054 ], [ -123.985091096999895, 46.309097120000047 ], [ -124.009303808999903, 46.313455506000082 ], [ -124.048695005999946, 46.296418351000057 ], [ -124.041438644999914, 46.27282800200004 ], [ -124.075835740999935, 46.268296617000033 ], [ -124.060857095999893, 46.439870820000067 ], [ -124.072499561999905, 46.642510042000083 ], [ -124.062876105999919, 46.654940829000054 ], [ -124.035760036999932, 46.630818343000044 ], [ -124.044097459999932, 46.623602606000077 ], [ -124.017893032999893, 46.568548895000049 ], [ -124.014251108999929, 46.385118637000062 ], [ -123.958119269999941, 46.378241278000075 ], [ -123.926863660999913, 46.440099665000048 ], [ -123.846547003999945, 46.396633205000057 ], [ -123.840646938999896, 46.415757554000038 ], [ -123.935825431999945, 46.47231129000005 ], [ -123.935170050999943, 46.494696356000077 ], [ -123.896351691999939, 46.521226304000038 ], [ -123.896351691999939, 46.544419664000088 ], [ -123.956410285999937, 46.623114325000074 ], [ -123.894927537999934, 46.602728583000044 ], [ -123.92251542899993, 46.657863674000055 ], [ -123.911000128999945, 46.682033596000053 ], [ -123.877268032999893, 46.692084052000041 ], [ -123.826486782999893, 46.692368882000039 ], [ -123.811879035999937, 46.662583726000037 ], [ -123.763986782999893, 46.678412177000041 ], [ -123.795725063999896, 46.68195221600007 ], [ -123.899996272999942, 46.747406449000039 ], [ -123.913002165999899, 46.727768694000076 ], [ -123.951785553999912, 46.724833801000045 ], [ -123.976128826999911, 46.741054508000047 ], [ -123.972697566999898, 46.701262049000036 ], [ -124.093378958999892, 46.74322839000007 ], [ -124.126820441999939, 46.898504950000074 ], [ -124.111781545999918, 46.912325889000044 ], [ -124.090878992999933, 46.900013011000055 ], [ -124.097564256999931, 46.877875067000048 ], [ -124.07249915299991, 46.842922268000052 ], [ -124.021311001999948, 46.83234284100007 ], [ -124.014719204999892, 46.851141669000071 ], [ -124.031564907999893, 46.870266018000052 ], [ -124.057045040999924, 46.862085883000077 ], [ -124.046927929999924, 46.891135833000078 ], [ -123.813059048999946, 46.958970445000034 ], [ -124.012883726999917, 46.98372611700006 ], [ -124.027699347999942, 47.028143622000073 ], [ -124.116869937999923, 47.042916937000086 ], [ -124.148182745999918, 47.024400132000039 ], [ -124.136599385999943, 46.967942881000056 ], [ -124.105760020999924, 46.933421287000044 ], [ -124.138029463999942, 46.944596455000067 ], [ -124.178460657999892, 46.925506828000039 ], [ -124.171892320999916, 47.041948537000053 ], [ -124.199834843999895, 47.187479798000084 ], [ -124.242932187999941, 47.290078656000048 ], [ -124.275983768999936, 47.302628408000032 ], [ -124.299256539999931, 47.34820463300008 ], [ -124.27171790299991, 47.342596747000073 ], [ -124.317807932999926, 47.357351183000048 ], [ -124.350819464999915, 47.546820380000042 ], [ -124.422759568999936, 47.741888739000046 ], [ -124.476565689999916, 47.778254609000044 ], [ -124.483469204999892, 47.812933661000045 ], [ -124.541612179999902, 47.834331149000036 ], [ -124.567982550999943, 47.869696356000077 ], [ -124.60950710599991, 47.874855198000034 ], [ -124.671986456999946, 47.990708726000037 ], [ -124.689442511999914, 48.100165106000077 ], [ -124.73460723799991, 48.170403604000057 ], [ -124.689442511999914, 48.213446356000077 ], [ -124.705516511999917, 48.245979080000041 ], [ -124.682478490999927, 48.263499821000039 ], [ -124.661488410999937, 48.319525458000044 ], [ -124.718251105999911, 48.357367255000042 ], [ -124.727528467999946, 48.387727740000059 ], [ -124.574893906999932, 48.370407625000041 ], [ -124.399213986999939, 48.293579925000074 ], [ -124.296342400999947, 48.261545235000085 ], [ -124.227650519999941, 48.258530992000033 ], [ -124.050181918999897, 48.177263026000048 ], [ -123.970991385999923, 48.165598436000039 ], [ -123.788889126999948, 48.153143622000073 ], [ -123.70034372899994, 48.164910696000049 ], [ -123.584599620999938, 48.135416810000038 ], [ -123.552393456999937, 48.151362185000039 ], [ -123.505482550999943, 48.132635809000078 ], [ -123.405021835999946, 48.138998371000071 ], [ -123.453428629999905, 48.13154865000007 ], [ -123.421734170999912, 48.117827898000087 ], [ -123.246926722999945, 48.115333746000033 ], [ -123.150033294999901, 48.177102253000044 ], [ -123.108250514999895, 48.183837639000046 ], [ -123.161284959999932, 48.151922919000071 ], [ -123.111809406999896, 48.14902750300007 ], [ -123.063029147999941, 48.117603385000052 ], [ -123.04045427199992, 48.08511328700007 ], [ -123.045277472999942, 48.059719143000052 ], [ -123.007883266999897, 48.038560289000088 ], [ -122.996815558999913, 48.038641669000071 ], [ -122.999134894999941, 48.091742255000042 ], [ -122.927479620999918, 48.095119533000059 ], [ -122.918771938999896, 48.070217190000051 ], [ -122.88695227799991, 48.062567450000074 ], [ -122.857289191999939, 48.029527085000041 ], [ -122.853382941999939, 48.010443427000041 ], [ -122.87328040299991, 47.993719794000071 ], [ -122.841379360999895, 48.005560614000046 ], [ -122.82485917899993, 48.035223700000074 ], [ -122.877064581999946, 48.079657294000071 ], [ -122.877756313999896, 48.106634833000044 ], [ -122.856271938999896, 48.124579169000071 ], [ -122.77017167899993, 48.141099351000037 ], [ -122.750396287999934, 48.117173570000034 ], [ -122.784535285999937, 48.102932033000059 ], [ -122.791981574999909, 48.082912502000056 ], [ -122.620106574999909, 47.877630927000041 ], [ -122.67642167899993, 47.862127997000073 ], [ -122.750396287999934, 47.774562893000052 ], [ -122.781076626999948, 47.69204336100006 ], [ -122.800363735999895, 47.679877020000049 ], [ -122.829213019999941, 47.694077867000033 ], [ -122.799794074999909, 47.777289130000042 ], [ -122.805653449999909, 47.843451239000046 ], [ -122.821603969999899, 47.79242584800005 ], [ -122.839182094999899, 47.782049872000073 ], [ -122.856434699999909, 47.826076565000051 ], [ -122.866363084999932, 47.793524481000077 ], [ -122.839182094999899, 47.746649481000077 ], [ -122.861927863999938, 47.733343817000048 ], [ -122.910023566999939, 47.650091864000046 ], [ -123.021066860999895, 47.565659898000035 ], [ -123.06509355399993, 47.493394273000035 ], [ -123.11937415299991, 47.44953034100007 ], [ -123.161284959999932, 47.356838283000059 ], [ -123.130238410999937, 47.340643622000073 ], [ -123.074126756999931, 47.344631252000056 ], [ -122.905140753999945, 47.394964911000045 ], [ -122.839182094999899, 47.43195221600007 ], [ -122.867746548999946, 47.436265367000033 ], [ -123.052235480999911, 47.367010809000078 ], [ -123.091867641999897, 47.367377020000049 ], [ -123.11351477799991, 47.391017971000053 ], [ -123.022613084999932, 47.52289459800005 ], [ -122.949045376999948, 47.597072658000059 ], [ -122.763539191999939, 47.669134833000044 ], [ -122.733754035999937, 47.742580471000053 ], [ -122.623646613999938, 47.847154039000088 ], [ -122.595692511999914, 47.847235419000071 ], [ -122.592152472999942, 47.822984117000033 ], [ -122.57095292899993, 47.81976959800005 ], [ -122.571441209999932, 47.857082424000055 ], [ -122.613189256999931, 47.94594961100006 ], [ -122.528065558999913, 47.905503648000035 ], [ -122.490061001999948, 47.803859768000052 ], [ -122.504017706999946, 47.788234768000052 ], [ -122.475168423999946, 47.776068427000041 ], [ -122.468373175999943, 47.756537177000041 ], [ -122.482899542999917, 47.737005927000041 ], [ -122.557972785999937, 47.740423895000049 ], [ -122.56468665299991, 47.712551174000055 ], [ -122.595855272999927, 47.691961981000077 ], [ -122.661040818999936, 47.730454820000034 ], [ -122.628407355999911, 47.692938544000071 ], [ -122.592152472999942, 47.582749742000033 ], [ -122.616932745999918, 47.574123440000051 ], [ -122.681507941999939, 47.651678778000075 ], [ -122.696929490999935, 47.623114325000074 ], [ -122.690012173999946, 47.596625067000048 ], [ -122.639149542999917, 47.577053127000056 ], [ -122.681507941999939, 47.527533270000049 ], [ -122.553130662999934, 47.583400783000059 ], [ -122.534087693999936, 47.527533270000049 ], [ -122.507923956999946, 47.520331122000073 ], [ -122.556223110999895, 47.391994533000059 ], [ -122.537505662999934, 47.37055084800005 ], [ -122.585926886999914, 47.336371161000045 ], [ -122.560658331999946, 47.301336981000077 ], [ -122.568511522999927, 47.264064846000053 ], [ -122.686268683999913, 47.301214911000045 ], [ -122.627919074999909, 47.379950262000079 ], [ -122.633127407999893, 47.40460846600007 ], [ -122.653635219999899, 47.376532294000071 ], [ -122.725941535999937, 47.339056708000044 ], [ -122.753081834999932, 47.281195380000042 ], [ -122.724476691999939, 47.232611395000049 ], [ -122.750396287999934, 47.212836005000042 ], [ -122.742990688999896, 47.19171784100007 ], [ -122.772775844999899, 47.173081773000035 ], [ -122.814849412999934, 47.250881252000056 ], [ -122.814930792999917, 47.274318752000056 ], [ -122.79556230399993, 47.280666408000059 ], [ -122.784006313999896, 47.315252997000073 ], [ -122.805653449999909, 47.397772528000075 ], [ -122.846018032999893, 47.31586334800005 ], [ -122.920480923999946, 47.278021552000041 ], [ -122.96507727799991, 47.181138414000088 ], [ -123.068348761999914, 47.14594147300005 ], [ -123.07876542899993, 47.130275783000059 ], [ -123.021636522999927, 47.144435940000051 ], [ -123.017933722999942, 47.130275783000059 ], [ -123.07876542899993, 47.096136786000045 ], [ -122.930246548999946, 47.17446523600006 ], [ -122.979074673999946, 47.101507880000042 ], [ -123.010487433999913, 47.082505601000037 ], [ -122.964588995999918, 47.089992580000057 ], [ -122.935414191999939, 47.130275783000059 ], [ -122.935414191999939, 47.08930084800005 ], [ -122.91820227799991, 47.056138414000088 ], [ -122.893299933999913, 47.047267971000053 ], [ -122.908070441999939, 47.082505601000037 ], [ -122.895822719999899, 47.092596747000073 ], [ -122.901234503999945, 47.130275783000059 ], [ -122.852853969999899, 47.165025132000039 ], [ -122.859689907999893, 47.130275783000059 ], [ -122.830799933999913, 47.136786200000074 ], [ -122.817128058999913, 47.165716864000046 ], [ -122.722482876999948, 47.08930084800005 ], [ -122.652333136999914, 47.128078518000052 ], [ -122.571603969999899, 47.20929596600007 ], [ -122.537098761999914, 47.278550523000035 ], [ -122.537505662999934, 47.31586334800005 ], [ -122.433094855999911, 47.264878648000035 ], [ -122.400380011999914, 47.281073309000078 ], [ -122.427601691999939, 47.296535549000055 ], [ -122.422027147999927, 47.31586334800005 ], [ -122.328480597999942, 47.357123114000046 ], [ -122.325266079999892, 47.391017971000053 ], [ -122.366810675999943, 47.442206122000073 ], [ -122.370228644999941, 47.497137762000079 ], [ -122.409047003999945, 47.574937242000033 ], [ -122.377919074999909, 47.596177476000037 ], [ -122.345773891999897, 47.562323309000078 ], [ -122.339995897999927, 47.598944403000075 ], [ -122.428781704999892, 47.660386460000041 ], [ -122.38109290299991, 47.72016022300005 ], [ -122.404367641999897, 47.797593492000033 ], [ -122.382191535999937, 47.839056708000044 ], [ -122.339711066999939, 47.872788804000038 ], [ -122.320423956999946, 47.942084052000041 ], [ -122.212798631999931, 47.986802476000037 ], [ -122.191721157999893, 48.026312567000048 ], [ -122.221587693999936, 48.038153387000079 ], [ -122.238107876999948, 48.026312567000048 ], [ -122.340158657999893, 48.090033270000049 ], [ -122.362294074999909, 48.12250397300005 ], [ -122.375599738999938, 48.21320221600007 ], [ -122.444203253999945, 48.232367255000042 ], [ -122.446115688999896, 48.202215887000079 ], [ -122.469471808999913, 48.177069403000075 ], [ -122.457875128999945, 48.143622137000079 ], [ -122.384103969999899, 48.101467190000051 ], [ -122.348011847999942, 48.054266669000071 ], [ -122.510365363999938, 48.147447007000039 ], [ -122.533273891999897, 48.196112372000073 ], [ -122.533950316999892, 48.249676800000088 ], [ -122.445912238999938, 48.261053778000075 ], [ -122.400786912999934, 48.235256252000056 ], [ -122.375314907999893, 48.280747789000088 ], [ -122.385853644999941, 48.303778387000079 ], [ -122.478627081999946, 48.359808661000045 ], [ -122.533762173999946, 48.374660549000055 ], [ -122.56704667899993, 48.409898179000038 ], [ -122.558949347999942, 48.434027411000045 ], [ -122.584462042999917, 48.43781159100007 ], [ -122.646595831999946, 48.40375397300005 ], [ -122.683461066999939, 48.430161851000037 ], [ -122.663319464999915, 48.454901434000078 ], [ -122.702381964999915, 48.497992255000042 ], [ -122.63304602799991, 48.51626211100006 ], [ -122.58071855399993, 48.458319403000075 ], [ -122.568348761999914, 48.489488023000035 ], [ -122.514271613999938, 48.453192450000074 ], [ -122.488880988999938, 48.454901434000078 ], [ -122.494252081999946, 48.529364325000074 ], [ -122.567005988999938, 48.585353908000059 ], [ -122.525135870999918, 48.583197333000044 ], [ -122.468088344999899, 48.554510809000078 ], [ -122.440297003999945, 48.58071523600006 ], [ -122.457875128999945, 48.623439846000053 ], [ -122.492583787999934, 48.643255927000041 ], [ -122.502552863999938, 48.684881903000075 ], [ -122.525135870999918, 48.692287502000056 ], [ -122.498850063999896, 48.739488023000035 ], [ -122.508615688999896, 48.755682684000078 ], [ -122.574533657999893, 48.780462958000044 ], [ -122.639719204999892, 48.722398179000038 ], [ -122.667347785999937, 48.73187897300005 ], [ -122.649647589999915, 48.763657945000034 ], [ -122.658192511999914, 48.777329820000034 ], [ -122.69595292899993, 48.800767320000034 ], [ -122.704904751999948, 48.787909247000073 ], [ -122.703846808999913, 48.827378648000035 ], [ -122.76821855399993, 48.874009507000039 ], [ -122.768381313999896, 48.897406317000048 ], [ -122.745838995999918, 48.917669989000046 ], [ -122.758859829999892, 48.935939846000053 ], [ -122.808094855999911, 48.934515692000048 ], [ -122.80101477799991, 48.962307033000059 ], [ -122.731556769999941, 48.959214585000041 ], [ -122.753016827999915, 48.992514547000084 ] ] ], [ [ [ -123.090506094999924, 48.992514547000084 ], [ -123.035308397999927, 48.99249909100007 ], [ -123.088490363999938, 48.972235419000071 ], [ -123.090506094999924, 48.992514547000084 ] ] ], [ [ [ -123.973997197999893, 46.492929715000059 ], [ -123.948180199999911, 46.464190148000057 ], [ -123.9455307959999, 46.417647034000083 ], [ -123.964121070999909, 46.406790580000063 ], [ -123.974716258999933, 46.440181221000046 ], [ -123.9977626189999, 46.453397257000063 ], [ -123.990346363999947, 46.488292977000071 ], [ -123.973997197999893, 46.492929715000059 ] ] ], [ [ [ -122.435129360999895, 47.425726630000042 ], [ -122.366810675999943, 47.383530992000033 ], [ -122.469227667999917, 47.336371161000045 ], [ -122.473784959999932, 47.362860419000071 ], [ -122.439849412999934, 47.392808335000041 ], [ -122.463042772999927, 47.397772528000075 ], [ -122.455637173999946, 47.391017971000053 ], [ -122.489735480999911, 47.373928127000056 ], [ -122.496571417999917, 47.336371161000045 ], [ -122.527251756999931, 47.346258856000077 ], [ -122.510243292999917, 47.455796617000033 ], [ -122.471018032999893, 47.495794989000046 ], [ -122.455637173999946, 47.500881252000056 ], [ -122.435129360999895, 47.425726630000042 ] ] ], [ [ [ -122.510975714999915, 47.62759023600006 ], [ -122.480376756999931, 47.586859442000048 ], [ -122.498768683999913, 47.571234442000048 ], [ -122.577870245999918, 47.601548570000034 ], [ -122.567697719999899, 47.629584052000041 ], [ -122.580474412999934, 47.662990627000056 ], [ -122.557769334999932, 47.713812567000048 ], [ -122.510975714999915, 47.695868231000077 ], [ -122.489857550999943, 47.64126211100006 ], [ -122.510975714999915, 47.62759023600006 ] ] ], [ [ [ -122.729318813999896, 48.096747137000079 ], [ -122.70921790299991, 48.102240302000041 ], [ -122.686879035999937, 48.073228257000039 ], [ -122.681507941999939, 48.00726959800005 ], [ -122.700184699999909, 48.007757880000042 ], [ -122.730783657999893, 48.04242584800005 ], [ -122.73892167899993, 48.082505601000037 ], [ -122.716297980999911, 48.04828522300005 ], [ -122.701975063999896, 48.049221096000053 ], [ -122.729318813999896, 48.096747137000079 ] ] ], [ [ [ -122.38109290299991, 48.015814520000049 ], [ -122.346791144999941, 47.950588283000059 ], [ -122.386708136999914, 47.90493398600006 ], [ -122.400380011999914, 47.919175523000035 ], [ -122.441314256999931, 47.91547272300005 ], [ -122.449696417999917, 47.959458726000037 ], [ -122.476063605999911, 47.986883856000077 ], [ -122.517689581999946, 47.966294664000088 ], [ -122.539214647999927, 47.972154039000088 ], [ -122.580189581999946, 48.004868882000039 ], [ -122.609771287999934, 48.060492255000042 ], [ -122.607248501999948, 48.15375397300005 ], [ -122.622954881999931, 48.163316148000035 ], [ -122.668446417999917, 48.150580145000049 ], [ -122.744130011999914, 48.205877997000073 ], [ -122.751210089999915, 48.249945380000042 ], [ -122.656564907999893, 48.38507721600007 ], [ -122.595773891999897, 48.401922919000071 ], [ -122.577707485999895, 48.356675523000035 ], [ -122.515980597999942, 48.321966864000046 ], [ -122.517567511999914, 48.294012762000079 ], [ -122.546376105999911, 48.281398830000057 ], [ -122.59398352799991, 48.307928778000075 ], [ -122.627430792999917, 48.267279364000046 ], [ -122.64126542899993, 48.287990627000056 ], [ -122.651356574999909, 48.249945380000042 ], [ -122.723703579999892, 48.233791408000059 ], [ -122.710072394999941, 48.221421617000033 ], [ -122.651926235999895, 48.22406647300005 ], [ -122.580637173999946, 48.188462632000039 ], [ -122.535511847999942, 48.005926825000074 ], [ -122.510243292999917, 48.035223700000074 ], [ -122.522857225999928, 48.057074286000045 ], [ -122.514027472999942, 48.090765692000048 ], [ -122.38109290299991, 48.015814520000049 ] ] ], [ [ [ -122.860747850999928, 48.539618231000077 ], [ -122.849354620999918, 48.461615302000041 ], [ -122.82095292899993, 48.472601630000042 ], [ -122.808338995999918, 48.458197333000044 ], [ -122.827748175999943, 48.417385158000059 ], [ -122.889881964999915, 48.42413971600007 ], [ -122.88345292899993, 48.441473700000074 ], [ -122.937611456999946, 48.458319403000075 ], [ -122.937001105999911, 48.493231512000079 ], [ -122.910308397999927, 48.513576565000051 ], [ -122.916981574999909, 48.533636786000045 ], [ -122.887074347999942, 48.563666083000044 ], [ -122.860747850999928, 48.539618231000077 ] ] ], [ [ [ -122.71548417899993, 48.606024481000077 ], [ -122.674549933999913, 48.568793036000045 ], [ -122.688059048999946, 48.547023830000057 ], [ -122.714344855999911, 48.541937567000048 ], [ -122.735422329999892, 48.590399481000077 ], [ -122.71548417899993, 48.606024481000077 ] ] ], [ [ [ -123.02017167899993, 48.499335028000075 ], [ -122.964955206999946, 48.45148346600007 ], [ -123.030018683999913, 48.453802802000041 ], [ -123.065419074999909, 48.478501695000034 ], [ -123.13931230399993, 48.495835679000038 ], [ -123.177561001999948, 48.598822333000044 ], [ -123.12913977799991, 48.620062567000048 ], [ -122.977650519999941, 48.531317450000074 ], [ -123.02017167899993, 48.499335028000075 ] ] ], [ [ [ -122.745838995999918, 48.66437409100007 ], [ -122.82095292899993, 48.609116929000038 ], [ -122.896351691999939, 48.699774481000077 ], [ -122.910308397999927, 48.657538153000075 ], [ -122.861927863999938, 48.601711330000057 ], [ -122.874379035999937, 48.593736070000034 ], [ -122.933338995999918, 48.592759507000039 ], [ -122.980091925999943, 48.638617255000042 ], [ -122.997059699999909, 48.597154039000088 ], [ -123.026519334999932, 48.626532294000071 ], [ -122.917958136999914, 48.711411851000037 ], [ -122.857818162999934, 48.708685614000046 ], [ -122.745838995999918, 48.66437409100007 ] ] ], [ [ [ -122.621408657999893, 48.668524481000077 ], [ -122.620472785999937, 48.64594147300005 ], [ -122.655140753999945, 48.664740302000041 ], [ -122.716542120999918, 48.715236721000053 ], [ -122.715158657999893, 48.739081122000073 ], [ -122.621408657999893, 48.668524481000077 ] ] ], [ [ [ -122.705393032999893, 47.18195221600007 ], [ -122.671376105999911, 47.164984442000048 ], [ -122.677072719999899, 47.139553127000056 ], [ -122.701079881999931, 47.123968817000048 ], [ -122.746408657999893, 47.153713283000059 ], [ -122.705393032999893, 47.18195221600007 ] ] ], [ [ [ -122.868153449999909, 47.268296617000033 ], [ -122.84829667899993, 47.193304755000042 ], [ -122.873850063999896, 47.167873440000051 ], [ -122.921945766999897, 47.237209377000056 ], [ -122.90493730399993, 47.278265692000048 ], [ -122.846913214999915, 47.298041083000044 ], [ -122.868153449999909, 47.268296617000033 ] ] ], [ [ [ -123.417084890999945, 46.204842387000042 ], [ -123.405042843999922, 46.200934099000051 ], [ -123.31566112899992, 46.148536334000084 ], [ -123.411046392999936, 46.175079562000064 ], [ -123.417084890999945, 46.204842387000042 ] ] ] ] } },
{ "type": "Feature", "properties": { "STUSPS": "ID", "NAME": "Idaho" }, "geometry": { "type": "Polygon", "coordinates": [ [ [ -117.038151102999919, 48.992514547000084 ], [ -116.048163124999931, 48.992514547000084 ], [ -116.048944134763985, 48.003690611232685 ], [ -115.937005658184546, 47.894486509844512 ], [ -115.855047650428673, 47.843851744162635 ], [ -115.821209760022384, 47.776200377245573 ], [ -115.718914837849468, 47.699784361559011 ], [ -115.717791790558636, 47.661112486551986 ], [ -115.676532024633218, 47.604496275083022 ], [ -115.732757611074874, 47.555619322473717 ], [ -115.63917850988031, 47.479276549373253 ], [ -115.714471478276096, 47.459794126697545 ], [ -115.723992963204637, 47.441727720757683 ], [ -115.586199994034473, 47.388431822470579 ], [ -115.496820110759472, 47.304081235860338 ], [ -115.333270306379518, 47.264359557047896 ], [ -115.279949994196841, 47.1959269391769 ], [ -115.192108197135553, 47.142801939058188 ], [ -115.061053509911517, 47.024320494395283 ], [ -115.051702924050687, 46.996659360940725 ], [ -114.917865032944917, 46.922831236172613 ], [ -114.921283001709128, 46.877006041195841 ], [ -114.90541386076103, 46.841849791434697 ], [ -114.766424602613313, 46.774418150477231 ], [ -114.761224407780162, 46.715995299043811 ], [ -114.692840618599632, 46.749808775554527 ], [ -114.663153119221022, 46.748490416199729 ], [ -114.622747845936317, 46.720096861381023 ], [ -114.636004681171073, 46.674247252508678 ], [ -114.567034954899214, 46.644340025371832 ], [ -114.329461712787804, 46.671561705108559 ], [ -114.338690228271389, 46.535770688866194 ], [ -114.400213666027867, 46.500638853000623 ], [ -114.371307415804552, 46.45371502552797 ], [ -114.402948041219076, 46.395048033340061 ], [ -114.406121869228855, 46.346757017822085 ], [ -114.454364056056306, 46.269950377108216 ], [ -114.433197063793443, 46.191385924220981 ], [ -114.503167766978834, 46.160087096042616 ], [ -114.451287885427519, 46.109061705333431 ], [ -114.482928509942781, 46.055790220941901 ], [ -114.473553510186321, 46.013285338247726 ], [ -114.404022259819385, 45.98516033807914 ], [ -114.41535038471244, 45.929496274833184 ], [ -114.38751835308949, 45.888309752393127 ], [ -114.422650188955004, 45.858133971505538 ], [ -114.495086712681598, 45.844681822408177 ], [ -114.549920697182415, 45.78350018188786 ], [ -114.533465619142987, 45.743046079912631 ], [ -114.493670696845186, 45.705057799377926 ], [ -114.497821087872865, 45.664554868712173 ], [ -114.540496868735488, 45.631888853387863 ], [ -114.529119916051286, 45.599955260326965 ], [ -114.540960736348893, 45.569095884967112 ], [ -114.450579877059681, 45.558890807364833 ], [ -114.340741009889655, 45.485697447479197 ], [ -114.29757694661879, 45.483695494551398 ], [ -114.25460819721053, 45.500931821746178 ], [ -114.221966595781737, 45.543168149790233 ], [ -114.108856244120318, 45.573295102886675 ], [ -114.04843143885978, 45.636088072206746 ], [ -113.998333783377348, 45.65483807171961 ], [ -114.002899213328021, 45.691312681734871 ], [ -113.989544720712274, 45.702689635318393 ], [ -113.895648236177124, 45.658256041383197 ], [ -113.88258671300639, 45.632352721001268 ], [ -113.803241010064539, 45.607792173869711 ], [ -113.78844608771675, 45.589261900316444 ], [ -113.810638470788774, 45.53530682235197 ], [ -113.757196088228852, 45.507572447210634 ], [ -113.764398235989802, 45.43816326812032 ], [ -113.754022260219131, 45.410257993911273 ], [ -113.714544721261859, 45.380179869505355 ], [ -113.714837688908176, 45.309012877342411 ], [ -113.593597455158431, 45.203373228092005 ], [ -113.560589641698584, 45.129813657973898 ], [ -113.505584759928695, 45.121683774986195 ], [ -113.436492963279591, 45.021952329836154 ], [ -113.439666791289369, 44.963920103429984 ], [ -113.481414837824502, 44.93354901047843 ], [ -113.433856243670675, 44.862797057238367 ], [ -113.34411015016326, 44.819950377308032 ], [ -113.333563275324877, 44.794144713407775 ], [ -113.232855267156822, 44.818607603158341 ], [ -113.141375775371728, 44.776493346390794 ], [ -113.045062298985897, 44.652103696728204 ], [ -113.068817181267889, 44.609257017697189 ], [ -112.993035931363124, 44.531547057450723 ], [ -113.008001751879306, 44.498685728263752 ], [ -112.995526165799902, 44.465238462884713 ], [ -112.838177533166572, 44.376981626900545 ], [ -112.808856244020433, 44.387992369352332 ], [ -112.822699017245839, 44.435526548711209 ], [ -112.751483197291691, 44.48852947845262 ], [ -112.680267377337543, 44.505472838001026 ], [ -112.390033001821564, 44.458329282770137 ], [ -112.359930462620753, 44.471390806840247 ], [ -112.327801555697192, 44.537113463415608 ], [ -112.242230267113086, 44.568705260139609 ], [ -112.081634563883995, 44.538724791316042 ], [ -111.870013470844981, 44.562406431911256 ], [ -111.808758587738623, 44.528080259995988 ], [ -111.66744999422184, 44.567240416511993 ], [ -111.460516399712048, 44.54907635319114 ], [ -111.457440228183941, 44.560526549360759 ], [ -111.503289837955606, 44.584452329811143 ], [ -111.494427532704435, 44.643900572053724 ], [ -111.451239056437259, 44.666215025502993 ], [ -111.461322063662294, 44.714579282707689 ], [ -111.396405071936499, 44.733793149833957 ], [ -111.375457805633175, 44.754886900410099 ], [ -111.307952923888308, 44.732352721001234 ], [ -111.22218632234086, 44.640702330148372 ], [ -111.210223430766689, 44.594340024972155 ], [ -111.111541791220645, 44.515262877579687 ], [ -111.05138554061017, 44.497880064313506 ], [ -111.05023808032314, 41.999833189050435 ], [ -117.016619915576598, 41.999540221404061 ], [ -117.020184368613684, 43.785087096292443 ], [ -117.031414837924387, 43.8286906114825 ], [ -116.971063275249946, 43.893363463353126 ], [ -116.935540814357068, 44.017045102849181 ], [ -116.968963665840477, 44.099955259727437 ], [ -116.920526166049683, 44.113578306993247 ], [ -116.891986126958159, 44.176688657855266 ], [ -116.96139530604853, 44.223832213086155 ], [ -116.973480267100626, 44.268314634812498 ], [ -117.044012494381093, 44.259647643423989 ], [ -117.099285930801045, 44.292338071744609 ], [ -117.140252728180826, 44.264432799334202 ], [ -117.195062298786013, 44.297709166544792 ], [ -117.194891399718301, 44.350052915709455 ], [ -117.215350385411909, 44.39475506429477 ], [ -117.193524212572299, 44.455570494582616 ], [ -117.203802532760676, 44.482499204874387 ], [ -117.122283977823315, 44.554081235960268 ], [ -117.103753705169311, 44.611844907716318 ], [ -117.029241985928877, 44.733646666460459 ], [ -116.931512493706578, 44.790238463134529 ], [ -116.863934369375613, 44.866092954726071 ], [ -116.821966595981621, 44.96655682213958 ], [ -116.831341595738024, 45.02500408836795 ], [ -116.71744999402199, 45.151371275264125 ], [ -116.656073041437708, 45.284720884860917 ], [ -116.649041790945887, 45.347513853281669 ], [ -116.539178509880287, 45.471024596407972 ], [ -116.511834759766316, 45.53562420479318 ], [ -116.454998822337757, 45.600760924277211 ], [ -116.463665813726323, 45.642435728226246 ], [ -116.54279179070852, 45.762430846106611 ], [ -116.687786907639634, 45.826713072050609 ], [ -116.759393352621089, 45.837967955256886 ], [ -116.838592572189441, 45.909867368784035 ], [ -116.902288861042052, 46.046415221185498 ], [ -116.960638470788751, 46.104764830032877 ], [ -116.909100384675014, 46.162479673997723 ], [ -116.94208378333991, 46.259720884711044 ], [ -117.044036908276667, 46.378470884923388 ], [ -117.038151102999919, 48.992514547000084 ] ] ] } },
{ "type": "Feature", "properties": { "STUSPS": "MT", "NAME": "Montana" }, "geometry": { "type": "Polygon", "coordinates": [ [ [ -116.048163124999931, 48.992514547000084 ], [ -104.047574447202976, 48.992617899896118 ], [ -104.039300580057727, 44.999930845831841 ], [ -111.05079960261952, 45.000028502313512 ], [ -111.05138554061017, 44.497880064313506 ], [ -111.111541791220645, 44.515262877579687 ], [ -111.210223430766689, 44.594340024972155 ], [ -111.22218632234086, 44.640702330148372 ], [ -111.307952923888308, 44.732352721001234 ], [ -111.375457805633175, 44.754886900410099 ], [ -111.396405071936499, 44.733793149833957 ], [ -111.461322063662294, 44.714579282707689 ], [ -111.451239056437259, 44.666215025502993 ], [ -111.494427532704435, 44.643900572053724 ], [ -111.503289837955606, 44.584452329811143 ], [ -111.457440228183941, 44.560526549360759 ], [ -111.460516399712048, 44.54907635319114 ], [ -111.66744999422184, 44.567240416511993 ], [ -111.808758587738623, 44.528080259995988 ], [ -111.870013470844981, 44.562406431911256 ], [ -112.081634563883995, 44.538724791316042 ], [ -112.242230267113086, 44.568705260139609 ], [ -112.327801555697192, 44.537113463415608 ], [ -112.359930462620753, 44.471390806840247 ], [ -112.390033001821564, 44.458329282770137 ], [ -112.680267377337543, 44.505472838001026 ], [ -112.751483197291691, 44.48852947845262 ], [ -112.822699017245839, 44.435526548711209 ], [ -112.808856244020433, 44.387992369352332 ], [ -112.838177533166572, 44.376981626900545 ], [ -112.995526165799902, 44.465238462884713 ], [ -113.008001751879306, 44.498685728263752 ], [ -112.993035931363124, 44.531547057450723 ], [ -113.068817181267889, 44.609257017697189 ], [ -113.045062298985897, 44.652103696728204 ], [ -113.141375775371728, 44.776493346390794 ], [ -113.232855267156822, 44.818607603158341 ], [ -113.333563275324877, 44.794144713407775 ], [ -113.34411015016326, 44.819950377308032 ], [ -113.433856243670675, 44.862797057238367 ], [ -113.481414837824502, 44.93354901047843 ], [ -113.439666791289369, 44.963920103429984 ], [ -113.436492963279591, 45.021952329836154 ], [ -113.505584759928695, 45.121683774986195 ], [ -113.560589641698584, 45.129813657973898 ], [ -113.593597455158431, 45.203373228092005 ], [ -113.714837688908176, 45.309012877342411 ], [ -113.714544721261859, 45.380179869505355 ], [ -113.754022260219131, 45.410257993911273 ], [ -113.764398235989802, 45.43816326812032 ], [ -113.757196088228852, 45.507572447210634 ], [ -113.810638470788774, 45.53530682235197 ], [ -113.78844608771675, 45.589261900316444 ], [ -113.803241010064539, 45.607792173869711 ], [ -113.88258671300639, 45.632352721001268 ], [ -113.895648236177124, 45.658256041383197 ], [ -113.989544720712274, 45.702689635318393 ], [ -114.002899213328021, 45.691312681734871 ], [ -113.998333783377348, 45.65483807171961 ], [ -114.04843143885978, 45.636088072206746 ], [ -114.108856244120318, 45.573295102886675 ], [ -114.221966595781737, 45.543168149790233 ], [ -114.25460819721053, 45.500931821746178 ], [ -114.29757694661879, 45.483695494551398 ], [ -114.340741009889655, 45.485697447479197 ], [ -114.450579877059681, 45.558890807364833 ], [ -114.545452923713412, 45.572757994485812 ], [ -114.529119916051286, 45.599955260326965 ], [ -114.540496868735488, 45.631888853387863 ], [ -114.497821087872865, 45.664554868712173 ], [ -114.493670696845186, 45.705057799377926 ], [ -114.533465619142987, 45.743046079912631 ], [ -114.549920697182415, 45.78350018188786 ], [ -114.495086712681598, 45.844681822408177 ], [ -114.422650188955004, 45.858133971505538 ], [ -114.38751835308949, 45.888309752393127 ], [ -114.41535038471244, 45.929496274833184 ], [ -114.404022259819385, 45.98516033807914 ], [ -114.473553510186321, 46.013285338247726 ], [ -114.482928509942781, 46.055790220941901 ], [ -114.451287885427519, 46.109061705333431 ], [ -114.503167766978834, 46.160087096042616 ], [ -114.433197063793443, 46.191385924220981 ], [ -114.454364056056306, 46.269950377108216 ], [ -114.406121869228855, 46.346757017822085 ], [ -114.402948041219076, 46.395048033340061 ], [ -114.371307415804552, 46.45371502552797 ], [ -114.400213666027867, 46.500638853000623 ], [ -114.338690228271389, 46.535770688866194 ], [ -114.347039838118008, 46.554691588346088 ], [ -114.325335735655642, 46.664945494438996 ], [ -114.359808391843785, 46.677982602814836 ], [ -114.470184369213257, 46.649100768285791 ], [ -114.567034954899214, 46.644340025371832 ], [ -114.636004681171073, 46.674247252508678 ], [ -114.622747845936317, 46.720096861381023 ], [ -114.663153119221022, 46.748490416199729 ], [ -114.692840618599632, 46.749808775554527 ], [ -114.761224407780162, 46.715995299043811 ], [ -114.766424602613313, 46.774418150477231 ], [ -114.90541386076103, 46.841849791434697 ], [ -114.921283001709128, 46.877006041195841 ], [ -114.917865032944917, 46.922831236172613 ], [ -115.051702924050687, 46.996659360940725 ], [ -115.061053509911517, 47.024320494395283 ], [ -115.192108197135553, 47.142801939058188 ], [ -115.279949994196841, 47.1959269391769 ], [ -115.333270306379518, 47.264359557047896 ], [ -115.496820110759472, 47.304081235860338 ], [ -115.586199994034473, 47.388431822470579 ], [ -115.723992963204637, 47.441727720757683 ], [ -115.714471478276096, 47.459794126697545 ], [ -115.63917850988031, 47.479276549373253 ], [ -115.732757611074874, 47.555619322473717 ], [ -115.676532024633218, 47.604496275083022 ], [ -115.717791790558636, 47.661112486551986 ], [ -115.718914837849468, 47.699784361559011 ], [ -115.821209760022384, 47.776200377245573 ], [ -115.855047650428673, 47.843851744162635 ], [ -115.937005658184546, 47.894486509844512 ], [ -116.048944134763985, 48.003690611232685 ], [ -116.048163124999931, 48.992514547000084 ] ] ] } },
{ "type": "Feature", "properties": { "STUSPS": "AZ", "NAME": "Arizona" }, "geometry": { "type": "Polygon", "coordinates": [ [ [ -109.047430462999856, 31.327391256000041 ], [ -111.06711767599991, 31.333644104000044 ], [ -114.822108114999963, 32.500239563000022 ], [ -114.795546427999867, 32.55222605400003 ], [ -114.802677774999893, 32.594497375000017 ], [ -114.739477498999918, 32.669066468 ], [ -114.720794720599827, 32.7245646349499 ], [ -114.682928510442366, 32.748099791272352 ], [ -114.578192180724557, 32.730082213123637 ], [ -114.535858197098094, 32.738236510006914 ], [ -114.52218632204108, 32.807132993692676 ], [ -114.460736126870756, 32.854911313806042 ], [ -114.469793744185893, 32.972611510213028 ], [ -114.501727338146111, 33.019413268207757 ], [ -114.666815227840459, 33.054154478146643 ], [ -114.696746868872879, 33.089359557497573 ], [ -114.673016399587141, 33.204984557491287 ], [ -114.683172650297536, 33.262772643142966 ], [ -114.7235046809962, 33.32124432236759 ], [ -114.698138470813774, 33.368412291494053 ], [ -114.726898235864894, 33.411478697383984 ], [ -114.625848431359998, 33.437137877011367 ], [ -114.579339641910906, 33.5201212755764 ], [ -114.532611127401594, 33.568558775367194 ], [ -114.517303509649253, 33.684745299455983 ], [ -114.488055463089097, 33.725126157945795 ], [ -114.515985150294398, 33.869120298862697 ], [ -114.48976444657194, 33.890580260570573 ], [ -114.518841595862909, 33.929813657873979 ], [ -114.515936321603931, 33.963627135284071 ], [ -114.428582806051622, 34.029081236309992 ], [ -114.382147260087947, 34.12371014310861 ], [ -114.224261517255172, 34.198075377176906 ], [ -114.119061321722597, 34.293216978480757 ], [ -114.125140423991354, 34.327787291150571 ], [ -114.368963665640649, 34.471537291312927 ], [ -114.36720585256802, 34.530131040914796 ], [ -114.419744915595345, 34.595951353072451 ], [ -114.421112102741347, 34.634281431742636 ], [ -114.494256634835779, 34.753592955150737 ], [ -114.542352338289732, 34.767875182093974 ], [ -114.568621868904074, 34.843046080112458 ], [ -114.616961713112516, 34.879300963268804 ], [ -114.638861126739585, 35.04780682172742 ], [ -114.611590619211654, 35.082572447360519 ], [ -114.638861126739585, 35.123539243841037 ], [ -114.635516399662094, 35.137186705002421 ], [ -114.581805463351429, 35.151346861568413 ], [ -114.571942181186671, 35.212552915984247 ], [ -114.590887493662876, 35.352884947382393 ], [ -114.667620891790705, 35.51704510274925 ], [ -114.646502728218309, 35.565482603439364 ], [ -114.645062299385586, 35.630643735919648 ], [ -114.694549602981795, 35.767069517943867 ], [ -114.693475385280806, 35.822416196949916 ], [ -114.668939252044822, 35.88538006443838 ], [ -114.729217572133223, 35.959257017897016 ], [ -114.741278119289746, 36.013627134784429 ], [ -114.719940227959114, 36.03887127548893 ], [ -114.721185345627191, 36.09272869697179 ], [ -114.707147260337763, 36.108841977775057 ], [ -114.554779095678725, 36.16052654906099 ], [ -114.442913860786007, 36.127689635568231 ], [ -114.356414837874468, 36.144340024772305 ], [ -114.275311321859988, 36.045658385226261 ], [ -114.233636517011632, 36.024418150377301 ], [ -114.123895306323277, 36.045853697290283 ], [ -114.084173626611573, 36.157572447010807 ], [ -114.042010541153502, 36.219779478340229 ], [ -114.040203900289725, 37.003129088436651 ], [ -109.046624798995254, 36.999808775254735 ], [ -109.047430462999856, 31.327391256000041 ] ] ] } },
{ "type": "Feature", "properties": { "STUSPS": "CA", "NAME": "California" }, "geometry": { "type": "MultiPolygon", "coordinates": [ [ [ [ -114.724284627999893, 32.71283640500009 ], [ -117.12512148894416, 32.53166949000402 ], [ -117.149810350999928, 32.646307684000078 ], [ -117.166371222999942, 32.669501044000071 ], [ -117.223974835999911, 32.68471444100004 ], [ -117.22618603199993, 32.697206661000052 ], [ -117.205813761999934, 32.713403109000069 ], [ -117.168058045999942, 32.69880508600005 ], [ -117.115089206999926, 32.600261543000045 ], [ -117.102311058999931, 32.620468257000084 ], [ -117.133208787999934, 32.689846096000053 ], [ -117.177343384999915, 32.715030606000084 ], [ -117.174638124999944, 32.726732120000065 ], [ -117.237833569999907, 32.707223084000077 ], [ -117.23656165299991, 32.669623114000046 ], [ -117.255279100999928, 32.691392320000034 ], [ -117.257556207999926, 32.784244680000086 ], [ -117.283597250999946, 32.837653985000088 ], [ -117.259873763999906, 32.854066839000041 ], [ -117.253640939999912, 32.88508136300004 ], [ -117.274769660999937, 32.993475653000075 ], [ -117.32216122299991, 33.108500616000072 ], [ -117.508844211999929, 33.335205337000048 ], [ -117.735218878999945, 33.484767971000053 ], [ -117.824574347999942, 33.561672268000052 ], [ -117.978505011999914, 33.635972398000035 ], [ -118.117387491999921, 33.74360654600008 ], [ -118.207209763999913, 33.763833569000042 ], [ -118.192862659999946, 33.731728564000036 ], [ -118.221506313999896, 33.770900783000059 ], [ -118.254551898999921, 33.765400526000064 ], [ -118.27677037199993, 33.756615928000087 ], [ -118.272206183999913, 33.715277411000045 ], [ -118.29130663299992, 33.703208265000058 ], [ -118.412040945999934, 33.741678190000073 ], [ -118.427568645999941, 33.773730759000046 ], [ -118.395715277999898, 33.805653987000085 ], [ -118.391388058999894, 33.835940991000086 ], [ -118.444650844999899, 33.949408270000049 ], [ -118.514068162999934, 34.022162177000041 ], [ -118.544056769999941, 34.038885809000078 ], [ -118.666589050999903, 34.038944518000051 ], [ -118.748392320999926, 34.03188851200008 ], [ -118.8069690559999, 33.999406269000076 ], [ -118.852603827999928, 34.033656929000074 ], [ -118.936807489999921, 34.043200309000042 ], [ -119.089698202999898, 34.100483864000068 ], [ -119.128652932999898, 34.100546906000034 ], [ -119.208322635999934, 34.152321691000054 ], [ -119.217087473999925, 34.14550181900006 ], [ -119.281158006999931, 34.268703518000052 ], [ -119.391482427999904, 34.318444897000063 ], [ -119.460229092999896, 34.374040410000077 ], [ -119.563175121999905, 34.414794513000061 ], [ -119.678060914999946, 34.414385001000085 ], [ -119.707879354999932, 34.39544085600005 ], [ -119.787648874999945, 34.417211163000047 ], [ -119.878635816999918, 34.406613060000041 ], [ -120.009967660999905, 34.461011957000039 ], [ -120.133412238999938, 34.472723700000074 ], [ -120.293206557999895, 34.468485563000058 ], [ -120.454107498999917, 34.442811833000064 ], [ -120.472681432999934, 34.45027297200005 ], [ -120.509985793999931, 34.521374539000078 ], [ -120.636626756999931, 34.562892971000053 ], [ -120.647834192999937, 34.585675589000061 ], [ -120.603053655999929, 34.70478195000004 ], [ -120.640248175999943, 34.75853099200009 ], [ -120.615573189999907, 34.858002598000041 ], [ -120.672839345999932, 34.90752128400004 ], [ -120.633697068999936, 35.035101630000042 ], [ -120.644886847999942, 35.13939036700009 ], [ -120.706369594999899, 35.174221096000053 ], [ -120.749669233999896, 35.177396791000035 ], [ -120.765533768999944, 35.160242155000049 ], [ -120.876682473999892, 35.223790356000052 ], [ -120.897654183999919, 35.249765515000036 ], [ -120.895590616999925, 35.273513581000088 ], [ -120.8622436469999, 35.361905041000057 ], [ -120.855580206999946, 35.321519273000035 ], [ -120.831404972999906, 35.336087589000044 ], [ -120.866749607999907, 35.370992622000074 ], [ -120.887318488999938, 35.432928778000075 ], [ -120.908184147999918, 35.448243818000037 ], [ -121.005362163999905, 35.460656967000034 ], [ -121.169401557999947, 35.636919404000082 ], [ -121.195030889999941, 35.632336335000048 ], [ -121.288312801999894, 35.664829516000054 ], [ -121.33723230499993, 35.786528670000052 ], [ -121.463200875999917, 35.886731338000061 ], [ -121.506677586999899, 36.003260042000079 ], [ -121.566738868999892, 36.020117263000088 ], [ -121.677920767999922, 36.162675352000065 ], [ -121.82485917899993, 36.239203192000048 ], [ -121.85220292899993, 36.279445705000057 ], [ -121.899660522999909, 36.304399527000044 ], [ -121.904168130999892, 36.384536730000036 ], [ -121.942269540999916, 36.511900845000071 ], [ -121.956929621999905, 36.517617502000064 ], [ -121.927533152999899, 36.523851999000044 ], [ -121.932527777999894, 36.555128979000074 ], [ -121.981115218999946, 36.58371687600004 ], [ -121.967219888999921, 36.585212701000046 ], [ -121.937694666999903, 36.639249335000045 ], [ -121.887421360999895, 36.601994493000063 ], [ -121.870003890999897, 36.607212149000077 ], [ -121.827060928999913, 36.656200019000039 ], [ -121.805359412999906, 36.737739027000089 ], [ -121.763742641999897, 36.722072658000059 ], [ -121.770214955999904, 36.739083170000072 ], [ -121.803204864999941, 36.750459474000081 ], [ -121.789811754999903, 36.806198967000057 ], [ -121.804245937999895, 36.836018241000033 ], [ -121.859934048999946, 36.927476304000038 ], [ -121.905601189999913, 36.969126309000046 ], [ -121.937243162999891, 36.97830698000007 ], [ -121.974235369999917, 36.955199274000051 ], [ -122.021210374999896, 36.962667850000059 ], [ -122.046794080999916, 36.948156804000064 ], [ -122.134990691999917, 36.965726027000073 ], [ -122.222117576999892, 37.02429494200004 ], [ -122.297658442999932, 37.111226697000063 ], [ -122.339290056999914, 37.118581815000084 ], [ -122.369353199999921, 37.174019993000059 ], [ -122.404456977999928, 37.194525975000033 ], [ -122.418363404999923, 37.252309719000039 ], [ -122.400337817999912, 37.359741136000082 ], [ -122.444446441999901, 37.437519345000055 ], [ -122.44916018899994, 37.476655219000065 ], [ -122.479267580999931, 37.502783450000038 ], [ -122.499263169999892, 37.493066185000089 ], [ -122.520471886999928, 37.531421460000047 ], [ -122.522424280999928, 37.593217442000082 ], [ -122.503232882999896, 37.601462648000052 ], [ -122.494740363999938, 37.665228583000044 ], [ -122.515171646999931, 37.781126118000088 ], [ -122.485930131999908, 37.79081053200008 ], [ -122.476449091999939, 37.810675016000062 ], [ -122.408636661999935, 37.810391705000086 ], [ -122.354543940999918, 37.730008295000061 ], [ -122.39245468799993, 37.710330339000052 ], [ -122.374911476999898, 37.655163302000062 ], [ -122.383729769999945, 37.631459923000079 ], [ -122.354141903999903, 37.613507428000048 ], [ -122.374108815999932, 37.60418704600005 ], [ -122.250965949999909, 37.568060614000046 ], [ -122.239576081999928, 37.546887253000079 ], [ -122.199298366999926, 37.534961906000035 ], [ -122.207346157999893, 37.517482815000051 ], [ -122.134144660999937, 37.497788804000038 ], [ -122.100168423999946, 37.455064195000034 ], [ -122.058908657999893, 37.447414455000057 ], [ -122.03213982099993, 37.463364130000059 ], [ -122.052235480999911, 37.471380927000041 ], [ -122.062367316999939, 37.501695054000038 ], [ -122.109038865999935, 37.517971096000053 ], [ -122.146309666999912, 37.578968426000074 ], [ -122.162778990999925, 37.66443382600005 ], [ -122.191863422999916, 37.700313007000034 ], [ -122.251766048999912, 37.722777463000057 ], [ -122.262350384999934, 37.743003384000076 ], [ -122.212451979999912, 37.743483524000055 ], [ -122.217292863999944, 37.758486264000055 ], [ -122.331508804999942, 37.78238805400008 ], [ -122.325008953999941, 37.803750772000058 ], [ -122.340656570999897, 37.807115783000086 ], [ -122.295502283999895, 37.831292182000084 ], [ -122.313902037999924, 37.885829354000066 ], [ -122.328759888999912, 37.908057592000034 ], [ -122.39108785399992, 37.907674614000086 ], [ -122.429698153999936, 37.96426198100005 ], [ -122.397725146999903, 37.95611727000005 ], [ -122.359565618999909, 37.987648655000044 ], [ -122.366305957999941, 38.012335587000052 ], [ -122.299040563999938, 38.011198076000085 ], [ -122.275570494999897, 38.03910111600004 ], [ -122.227040167999917, 38.058417059000078 ], [ -122.147938605999911, 38.023627020000049 ], [ -122.003989925999917, 38.056135596000047 ], [ -121.690043679999917, 38.009118724000075 ], [ -121.681442821999894, 38.017453104000083 ], [ -121.720605700999897, 38.032116780000081 ], [ -121.681507941999939, 38.048325914000088 ], [ -121.671131964999915, 38.083889065000051 ], [ -121.606678839999915, 38.099351304000038 ], [ -121.582054389999939, 38.092000484000039 ], [ -121.576518639999904, 38.074307486000066 ], [ -121.620622940999908, 38.061825336000084 ], [ -121.632239425999899, 38.044229426000072 ], [ -121.612760446999914, 38.021491498000046 ], [ -121.584243414999946, 38.028710186000069 ], [ -121.569305311999926, 38.065844333000086 ], [ -121.445383266999897, 38.003892320000034 ], [ -121.48656165299991, 38.044745184000078 ], [ -121.548642240999925, 38.064206155000079 ], [ -121.571277742999939, 38.097139452000079 ], [ -121.604074673999946, 38.10578034100007 ], [ -121.680281841999943, 38.092690639000068 ], [ -121.699330206999946, 38.050848700000074 ], [ -121.742063135999899, 38.02944881600007 ], [ -121.778708776999906, 38.036019105000037 ], [ -121.779849615999922, 38.061374991000037 ], [ -121.716667794999921, 38.092807082000036 ], [ -121.682601541999929, 38.147192591000078 ], [ -121.746978318999936, 38.087713934000078 ], [ -121.80308012799992, 38.062883403000058 ], [ -121.846118462999925, 38.072511231000078 ], [ -121.898170078999897, 38.053220639000074 ], [ -121.928822394999941, 38.058417059000078 ], [ -121.908314581999946, 38.07884349200009 ], [ -121.971269434999897, 38.074917644000038 ], [ -122.014955473999919, 38.098510611000052 ], [ -121.98599224499992, 38.110704479000049 ], [ -122.000296232999915, 38.137312445000077 ], [ -122.055165167999917, 38.133734442000048 ], [ -122.130290382999931, 38.042142433000038 ], [ -122.184301597999934, 38.064789216000065 ], [ -122.26088795499993, 38.06943282900005 ], [ -122.300677480999923, 38.108195570000078 ], [ -122.396519648999913, 38.153231178000055 ], [ -122.4341308139999, 38.123345321000045 ], [ -122.502317470999913, 38.113520866000044 ], [ -122.482488475999901, 38.076881029000049 ], [ -122.506049972999904, 38.017172177000077 ], [ -122.445335789999945, 37.985123056000077 ], [ -122.492543097999942, 37.969794012000079 ], [ -122.480345583999906, 37.941820138000082 ], [ -122.503592822999906, 37.940495312000053 ], [ -122.503439636999929, 37.92481173200008 ], [ -122.438800504999904, 37.882082590000039 ], [ -122.459009212999945, 37.862484926000036 ], [ -122.499028738999925, 37.893590149000033 ], [ -122.470391197999902, 37.83183162000006 ], [ -122.528425812999899, 37.816371593000042 ], [ -122.645198853999943, 37.898815966000086 ], [ -122.727738257999931, 37.903039615000068 ], [ -122.821432247999894, 37.997669778000045 ], [ -122.921111944999893, 38.034871294000084 ], [ -122.932695539999941, 38.049519338000039 ], [ -122.920142064999936, 38.065312404000053 ], [ -122.948475714999915, 38.060736395000049 ], [ -122.936085525999943, 38.030770371000074 ], [ -122.979069671999923, 38.014515591000077 ], [ -122.980330499999923, 37.998039062000089 ], [ -122.962504008999929, 37.992047822000075 ], [ -123.027453026999922, 37.994488745000069 ], [ -122.949648005999904, 38.143990916000064 ], [ -122.996296689999895, 38.242729824000037 ], [ -122.825672980999911, 38.072088934000078 ], [ -122.83226477799991, 38.095892645000049 ], [ -122.968815284999891, 38.237093637000044 ], [ -123.002280363999944, 38.294859195000072 ], [ -123.029521556999896, 38.31269155800004 ], [ -123.062439643999937, 38.29590274800006 ], [ -123.070932273999915, 38.359954194000068 ], [ -123.12872916099991, 38.449310265000065 ], [ -123.336979425999914, 38.567259471000057 ], [ -123.433606676999943, 38.686794669000051 ], [ -123.726242233999926, 38.918576086000087 ], [ -123.742606700999943, 38.955623911000089 ], [ -123.725241612999923, 38.960372251000081 ], [ -123.689076300999943, 39.027899481000077 ], [ -123.721648712999922, 39.133019342000068 ], [ -123.767850350999936, 39.194006733000037 ], [ -123.824924247999945, 39.34729559200008 ], [ -123.816509372999917, 39.443998058000034 ], [ -123.769444368999928, 39.563728211000068 ], [ -123.786827832999904, 39.596776979000083 ], [ -123.790581689999897, 39.677373737000039 ], [ -123.830019570999923, 39.726514178000059 ], [ -123.854018803999907, 39.833514269000034 ], [ -123.907720977999929, 39.86586720400004 ], [ -123.930696268999895, 39.908017810000047 ], [ -124.033457798999905, 40.012125926000067 ], [ -124.076052004999895, 40.027217164000035 ], [ -124.087441716999933, 40.07751537300004 ], [ -124.115793423999946, 40.107123114000046 ], [ -124.185317380999948, 40.129551480000089 ], [ -124.363509794999914, 40.261480937000044 ], [ -124.348283142999946, 40.318907378000063 ], [ -124.409201970999902, 40.44381766500004 ], [ -124.357980923999946, 40.563055731000077 ], [ -124.239737672999922, 40.758709465000038 ], [ -124.230885396999895, 40.750081009000041 ], [ -124.259497744999919, 40.698410073000048 ], [ -124.22576009799991, 40.686123080000073 ], [ -124.213844690999906, 40.701402471000051 ], [ -124.220454935999896, 40.737238493000063 ], [ -124.20289856699992, 40.745185527000046 ], [ -124.182743320999919, 40.799903013000062 ], [ -124.121864672999891, 40.807383196000046 ], [ -124.087398312999937, 40.825156170000071 ], [ -124.082483318999891, 40.843501684000046 ], [ -124.154967697999894, 40.861727478000034 ], [ -124.199744790999944, 40.784852710000052 ], [ -124.223288141999944, 40.757096106000063 ], [ -124.232841118999943, 40.766642871000045 ], [ -124.176575122999907, 40.847754338000072 ], [ -124.110413345999916, 41.015252825000061 ], [ -124.111412218999931, 41.041660333000038 ], [ -124.146878394999931, 41.060165416000075 ], [ -124.164052832999914, 41.132220090000089 ], [ -124.124261811999929, 41.181808722000085 ], [ -124.062155357999927, 41.435875986000042 ], [ -124.082020636999914, 41.521470445000034 ], [ -124.068348761999914, 41.539252020000049 ], [ -124.103098110999895, 41.566555080000057 ], [ -124.102772589999915, 41.602606512000079 ], [ -124.139881964999915, 41.664292710000041 ], [ -124.159458813999947, 41.736674780000044 ], [ -124.201107462999914, 41.739305330000036 ], [ -124.262895183999944, 41.776427858000034 ], [ -124.218837133999898, 41.850006372000053 ], [ -124.202219204999892, 41.96039459800005 ], [ -124.214521385647402, 41.999540221404061 ], [ -120.000750774928292, 41.999540221404061 ], [ -120.000018352664824, 38.999222837763739 ], [ -118.126214641792274, 37.691337096329903 ], [ -116.659539837993123, 36.588920103080284 ], [ -114.62821659631885, 35.003568540755509 ], [ -114.616961713112516, 34.879300963268804 ], [ -114.568621868904074, 34.843046080112458 ], [ -114.542352338289732, 34.767875182093974 ], [ -114.494256634835779, 34.753592955150737 ], [ -114.421112102741347, 34.634281431742636 ], [ -114.419744915595345, 34.595951353072451 ], [ -114.36720585256802, 34.530131040914796 ], [ -114.368963665640649, 34.471537291312927 ], [ -114.125140423991354, 34.327787291150571 ], [ -114.119061321722597, 34.293216978480757 ], [ -114.224261517255172, 34.198075377176906 ], [ -114.382147260087947, 34.12371014310861 ], [ -114.428582806051622, 34.029081236309992 ], [ -114.515936321603931, 33.963627135284071 ], [ -114.518841595862909, 33.929813657873979 ], [ -114.48976444657194, 33.890580260570573 ], [ -114.515985150294398, 33.869120298862697 ], [ -114.488055463089097, 33.725126157945795 ], [ -114.517303509649253, 33.684745299455983 ], [ -114.532611127401594, 33.568558775367194 ], [ -114.579339641910906, 33.5201212755764 ], [ -114.625848431359998, 33.437137877011367 ], [ -114.726898235864894, 33.411478697383984 ], [ -114.698138470813774, 33.368412291494053 ], [ -114.7235046809962, 33.32124432236759 ], [ -114.683172650297536, 33.262772643142966 ], [ -114.673016399587141, 33.204984557491287 ], [ -114.696746868872879, 33.089359557497573 ], [ -114.666815227840459, 33.054154478146643 ], [ -114.501727338146111, 33.019413268207757 ], [ -114.469793744185893, 32.972611510213028 ], [ -114.460736126870756, 32.854911313806042 ], [ -114.52218632204108, 32.807132993692676 ], [ -114.535858197098094, 32.738236510006914 ], [ -114.578192180724557, 32.730082213123637 ], [ -114.682928510442366, 32.748099791272352 ], [ -114.724284627999893, 32.71283640500009 ] ] ], [ [ [ -118.504424056999937, 32.941329224000071 ], [ -118.350941535999937, 32.81867096600007 ], [ -118.384180700999934, 32.824391357000081 ], [ -118.429043422999939, 32.802872774000036 ], [ -118.499149718999945, 32.85062791900009 ], [ -118.607215286999917, 33.030856352000058 ], [ -118.564367112999946, 33.023762111000053 ], [ -118.504424056999937, 32.941329224000071 ] ] ], [ [ [ -119.53210348999994, 33.286278258000038 ], [ -119.434336974999894, 33.224011786000062 ], [ -119.472942058999934, 33.21532426300007 ], [ -119.544188332999909, 33.231319744000075 ], [ -119.5789260439999, 33.276096675000076 ], [ -119.53210348999994, 33.286278258000038 ] ] ], [ [ [ -118.486345800999914, 33.415967844000079 ], [ -118.572850731999893, 33.437906618000056 ], [ -118.603913367999894, 33.476588999000057 ], [ -118.535860837999905, 33.477278162000061 ], [ -118.498770320999938, 33.442665713000054 ], [ -118.476900714999942, 33.447445403000074 ], [ -118.369206483999903, 33.40839266200004 ], [ -118.368289460999904, 33.389002583000035 ], [ -118.308665395999924, 33.336420001000079 ], [ -118.304340113999899, 33.30904002300008 ], [ -118.326034906999894, 33.298632797000039 ], [ -118.374796158999914, 33.319511779000038 ], [ -118.463585585999908, 33.323514310000064 ], [ -118.48958155899993, 33.358498939000071 ], [ -118.47487230999991, 33.382370955000056 ], [ -118.486345800999914, 33.415967844000079 ] ] ], [ [ [ -120.044138729999929, 34.037272705000078 ], [ -120.047003513999925, 34.00381258200008 ], [ -120.008337388999905, 33.979026670000053 ], [ -119.980407272999912, 33.983467124000072 ], [ -119.968830159999925, 33.941116579000038 ], [ -119.999628467999912, 33.941479228000048 ], [ -120.109891163999919, 33.893140151000068 ], [ -120.175609984999937, 33.922231553000074 ], [ -120.248516704999929, 34.001127158000088 ], [ -120.044138729999929, 34.037272705000078 ] ] ], [ [ [ -120.369068028999948, 34.076225100000045 ], [ -120.318325774999892, 34.040055005000056 ], [ -120.308301269999902, 34.018200390000061 ], [ -120.449202675999913, 34.035865963000049 ], [ -120.369068028999948, 34.076225100000045 ] ] ], [ [ [ -119.521494225999902, 34.034291329000041 ], [ -119.559521218999919, 33.994308649000061 ], [ -119.657682596999905, 33.986061776000042 ], [ -119.719512041999906, 33.959134293000034 ], [ -119.817204834999927, 33.959337927000036 ], [ -119.874109320999935, 33.980046565000066 ], [ -119.887068710999927, 34.008776658000045 ], [ -119.877221801999895, 34.032482766000044 ], [ -119.933019092999928, 34.06022914600004 ], [ -119.91722485799994, 34.078820327000074 ], [ -119.806996222999942, 34.051947333000044 ], [ -119.759262504999924, 34.055808821000085 ], [ -119.685359820999906, 34.019871289000037 ], [ -119.633182665999925, 34.013635007000062 ], [ -119.610079325999948, 34.039645939000081 ], [ -119.564930792999917, 34.05532461100006 ], [ -119.521494225999902, 34.034291329000041 ] ] ], [ [ [ -118.26750609599992, 33.747028786000044 ], [ -118.223918624999897, 33.756066514000054 ], [ -118.243878229999893, 33.750844216000075 ], [ -118.236346109999943, 33.728046034000045 ], [ -118.257628533999934, 33.716554070000086 ], [ -118.244320061999929, 33.734290960000067 ], [ -118.248993863999942, 33.749427260000061 ], [ -118.268615110999917, 33.728931446000047 ], [ -118.26750609599992, 33.747028786000044 ] ] ] ] } },
{ "type": "Feature", "properties": { "STUSPS": "NM", "NAME": "New Mexico" }, "geometry": { "type": "Polygon", "coordinates": [ [ [ -106.506052409999938, 31.770258281000068 ], [ -108.215121216999904, 31.777751364000025 ], [ -108.214811157999918, 31.327442932000068 ], [ -109.047430462999856, 31.327391256000041 ], [ -109.046624798995254, 36.999808775254735 ], [ -103.000799603418955, 36.999808775254735 ], [ -103.000238080223198, 36.500199400381973 ], [ -103.042108197135576, 36.49958904939507 ], [ -103.065594524767505, 32.00168865790522 ], [ -106.66217655600326, 32.000297056863644 ], [ -106.60072636083288, 31.835941588533444 ], [ -106.506052409999938, 31.770258281000068 ] ] ] } },
{ "type": "Feature", "properties": { "STUSPS": "OR", "NAME": "Oregon" }, "geometry": { "type": "MultiPolygon", "coordinates": [ [ [ [ -124.4924472699999, 42.92983629400004 ], [ -124.416151450999905, 43.125484449000055 ], [ -124.38661223899993, 43.263099067000041 ], [ -124.401323790999925, 43.310096132000069 ], [ -124.376504265999927, 43.340228799000045 ], [ -124.342123057999913, 43.352103755000087 ], [ -124.316514217999895, 43.299832471000059 ], [ -124.308707548999905, 43.354911278000088 ], [ -124.232873571999903, 43.424081451000063 ], [ -124.217993791999902, 43.416376566000054 ], [ -124.212873321999894, 43.374680932000047 ], [ -124.140034925999942, 43.375348974000076 ], [ -124.186671728999897, 43.391327923000063 ], [ -124.208610915999941, 43.430959561000066 ], [ -124.197621222999942, 43.452460028000075 ], [ -124.208698239999933, 43.452189747000034 ], [ -124.277027482999927, 43.42145488500006 ], [ -124.335229283999922, 43.365316424000071 ], [ -124.237903173999939, 43.547115862000055 ], [ -124.209787755999912, 43.656630134000068 ], [ -124.174686291999933, 43.672995449000041 ], [ -124.139812165999899, 43.733105799000043 ], [ -124.109017972999936, 43.706116866000059 ], [ -124.070218166999894, 43.711661445000061 ], [ -124.148814088999927, 43.747587557000088 ], [ -124.171514853999895, 43.697602817000075 ], [ -124.20294541599992, 43.680772710000042 ], [ -124.139881964999915, 43.982001044000071 ], [ -124.119455532999893, 44.00649648600006 ], [ -124.133540939999932, 44.044255746000033 ], [ -124.114084438999896, 44.307359117000033 ], [ -124.084427140999935, 44.41166449900004 ], [ -124.053551799999923, 44.432975382000052 ], [ -124.017893032999893, 44.409816799000055 ], [ -124.027615818999891, 44.439216139000052 ], [ -124.049612483999908, 44.44869587800008 ], [ -124.083433705999937, 44.427752110000085 ], [ -124.084352013999933, 44.498066040000083 ], [ -124.063193965999915, 44.60951951900006 ], [ -124.045663028999911, 44.621499811000035 ], [ -124.012020071999927, 44.599835351000081 ], [ -124.004754946999924, 44.616291370000056 ], [ -124.048294225999939, 44.632554954000057 ], [ -124.068138344999909, 44.617752803000087 ], [ -124.057844017999912, 44.663580183000079 ], [ -124.077992039999913, 44.674916636000034 ], [ -124.058420376999948, 44.726141669000071 ], [ -124.073374301999934, 44.777653192000059 ], [ -124.065184793999947, 44.823311082000089 ], [ -124.017689581999946, 44.916571356000077 ], [ -124.014149542999917, 45.064276434000078 ], [ -123.971099412999934, 45.153713283000059 ], [ -123.960357225999928, 45.299994208000044 ], [ -123.971913214999915, 45.331447658000059 ], [ -124.001779751999948, 45.344468492000033 ], [ -123.972767706999946, 45.362005927000041 ], [ -123.957875128999945, 45.414984442000048 ], [ -123.960804816999939, 45.378607489000046 ], [ -123.918446417999917, 45.417669989000046 ], [ -123.971099412999934, 45.451971747000073 ], [ -123.948801235999895, 45.557196356000077 ], [ -123.939198370999918, 45.499823309000078 ], [ -123.890533006999931, 45.475490627000056 ], [ -123.896066860999895, 45.560288804000038 ], [ -123.925200975999928, 45.554266669000071 ], [ -123.957875128999945, 45.576157945000034 ], [ -123.918229469999915, 45.689566336000041 ], [ -123.887428465999903, 45.682923249000055 ], [ -123.871083136999914, 45.69790273600006 ], [ -123.917432518999931, 45.704483054000036 ], [ -123.937879725999892, 45.660603523000077 ], [ -123.941677188999904, 45.726954361000082 ], [ -123.981138639999926, 45.760293748000038 ], [ -123.956613735999895, 45.873236395000049 ], [ -123.990549282999893, 45.937933661000045 ], [ -123.933990037999934, 45.979681708000044 ], [ -123.923329230999911, 46.01398346600007 ], [ -123.950632813999903, 46.119998880000082 ], [ -124.017339970999899, 46.235432913000068 ], [ -123.900694775999909, 46.168617977000054 ], [ -123.825116494999918, 46.156948235000073 ], [ -123.798736131999931, 46.102443752000056 ], [ -123.800647149999918, 46.143553333000057 ], [ -123.778309699999909, 46.143377997000073 ], [ -123.865418796999904, 46.186467798000081 ], [ -123.766770687999895, 46.204106413000034 ], [ -123.727188914999942, 46.170422303000066 ], [ -123.705953207999926, 46.170805465000058 ], [ -123.614084438999896, 46.186468817000048 ], [ -123.599476691999939, 46.191839911000045 ], [ -123.620594855999911, 46.204820054000038 ], [ -123.519273185999907, 46.235269216000063 ], [ -123.43715407399992, 46.19832191900008 ], [ -123.430141898999921, 46.17672391900004 ], [ -123.385520921999898, 46.146183099000041 ], [ -123.256438867999918, 46.133321197000043 ], [ -123.180094813324956, 46.179102095185499 ], [ -123.111834760066074, 46.186478697034204 ], [ -122.966693157962823, 46.135746274870655 ], [ -122.891741985903877, 46.092484556916759 ], [ -122.850018353264375, 46.011503111279524 ], [ -122.806536907552186, 45.978129088486639 ], [ -122.774041791295588, 45.881376158382977 ], [ -122.779852338014962, 45.81987713542145 ], [ -122.753143352783468, 45.78232830680588 ], [ -122.754486126933159, 45.701908385263721 ], [ -122.721600384749934, 45.648881040727417 ], [ -122.673114056268673, 45.625736510331649 ], [ -122.539617963298326, 45.621879087849607 ], [ -122.42611698571028, 45.588187681716136 ], [ -122.341619915726483, 45.587089049220197 ], [ -122.261053509911505, 45.566312681984641 ], [ -121.971063275150016, 45.642338071744575 ], [ -121.792645305836174, 45.721390807040109 ], [ -121.71752323560878, 45.71001385345653 ], [ -121.570233197204288, 45.729447447441714 ], [ -121.271844524804976, 45.70876873578851 ], [ -121.204241985679062, 45.684940610920421 ], [ -121.154974408042449, 45.622220885085767 ], [ -121.03888554133465, 45.653324400300789 ], [ -120.900116010045792, 45.641800963343769 ], [ -120.66862186930382, 45.703373227992074 ], [ -120.63141483792441, 45.729056822414407 ], [ -120.470159955017891, 45.710135923833775 ], [ -120.362591596325103, 45.715238463084575 ], [ -120.290106243907985, 45.740409361203035 ], [ -120.229901166405682, 45.737064635024865 ], [ -120.127240033101032, 45.789091001748318 ], [ -119.934198041406432, 45.837967955256886 ], [ -119.662469524648827, 45.871830260458125 ], [ -119.575262494268657, 45.927591978387056 ], [ -119.09332890030845, 45.948832213236017 ], [ -119.044549603281553, 45.964481627325199 ], [ -119.002362103028588, 45.999515806709098 ], [ -116.878826947305754, 46.001468931845693 ], [ -116.838592572189441, 45.909867368784035 ], [ -116.759393352621089, 45.837967955256886 ], [ -116.687786907639634, 45.826713072050609 ], [ -116.530120891665774, 45.751566587927641 ], [ -116.455902141870297, 45.621927916540074 ], [ -116.462957806257748, 45.581913268282676 ], [ -116.511834759766316, 45.53562420479318 ], [ -116.539178509880287, 45.471024596407972 ], [ -116.649041790945887, 45.347513853281669 ], [ -116.656073041437708, 45.284720884860917 ], [ -116.71744999402199, 45.151371275264125 ], [ -116.831341595738024, 45.02500408836795 ], [ -116.82035526718181, 44.987528502338478 ], [ -116.840838665871729, 44.901249205386478 ], [ -116.917279096353184, 44.802591977937425 ], [ -117.029241985928877, 44.733646666460459 ], [ -117.103753705169311, 44.611844907716318 ], [ -117.122283977823315, 44.554081235960268 ], [ -117.203802532760676, 44.482499204874387 ], [ -117.193524212572299, 44.455570494582616 ], [ -117.215350385411909, 44.39475506429477 ], [ -117.194891399718301, 44.350052915709455 ], [ -117.195062298786013, 44.297709166544792 ], [ -117.140252728180826, 44.264432799334202 ], [ -117.099285930801045, 44.292338071744609 ], [ -117.044012494381093, 44.259647643423989 ], [ -116.973480267100626, 44.268314634812498 ], [ -116.96139530604853, 44.223832213086155 ], [ -116.891986126958159, 44.176688657855266 ], [ -116.920526166049683, 44.113578306993247 ], [ -116.968963665840477, 44.099955259727437 ], [ -116.935540814357068, 44.017045102849181 ], [ -116.971063275249946, 43.893363463353126 ], [ -117.031414837924387, 43.8286906114825 ], [ -117.020184368613684, 43.785087096292443 ], [ -117.016619915576598, 41.999540221404061 ], [ -124.214521385647402, 41.999540221404061 ], [ -124.350457994999942, 42.097958190000043 ], [ -124.37905904899992, 42.220278054000062 ], [ -124.412464972999942, 42.248928127000056 ], [ -124.409448772999895, 42.296244456000068 ], [ -124.432813586999941, 42.329310740000039 ], [ -124.424980115999915, 42.419888939000089 ], [ -124.439788396999916, 42.439191830000084 ], [ -124.423541867999916, 42.454090670000085 ], [ -124.394439256999931, 42.566555080000057 ], [ -124.399891262999915, 42.615729872000088 ], [ -124.414540167999917, 42.66242096600007 ], [ -124.454416469999899, 42.686916408000059 ], [ -124.472927172999903, 42.730308576000084 ], [ -124.505482550999943, 42.736517645000049 ], [ -124.538889126999891, 42.816229559000078 ], [ -124.566761847999942, 42.833970445000034 ], [ -124.4924472699999, 42.92983629400004 ] ] ], [ [ [ -123.480746802999931, 46.255943786000046 ], [ -123.444334921999939, 46.235899076000067 ], [ -123.440840311999921, 46.213248060000069 ], [ -123.468439305999937, 46.225003423000032 ], [ -123.480746802999931, 46.255943786000046 ] ] ] ] } },
{ "type": "Feature", "properties": { "STUSPS": "UT", "NAME": "Utah" }, "geometry": { "type": "Polygon", "coordinates": [ [ [ -111.05023808032314, 41.999833189050435 ], [ -111.049920696982554, 40.999833189250239 ], [ -109.046331829550297, 40.999833189250239 ], [ -109.046624798995254, 36.999808775254735 ], [ -114.040203900289725, 37.003129088436651 ], [ -114.042547649554365, 42.000077329804924 ], [ -111.05023808032314, 41.999833189050435 ] ] ] } },
{ "type": "Feature", "properties": { "STUSPS": "WY", "NAME": "Wyoming" }, "geometry": { "type": "Polygon", "coordinates": [ [ [ -111.049993938669331, 41.000052916109155 ], [ -111.05079960261952, 45.000028502313512 ], [ -104.056658977629695, 45.000101744000233 ], [ -104.053729291273726, 40.999833189250239 ], [ -111.049993938669331, 41.000052916109155 ] ] ] } },
{ "type": "Feature", "properties": { "STUSPS": "NV", "NAME": "Nevada" }, "geometry": { "type": "Polygon", "coordinates": [ [ [ -114.042547649554365, 42.000077329804924 ], [ -114.042010541153502, 36.219779478340229 ], [ -114.084173626611573, 36.157572447010807 ], [ -114.123895306323277, 36.045853697290283 ], [ -114.158660931057113, 36.029740416487016 ], [ -114.256536907552231, 36.032450376883389 ], [ -114.365643353358053, 36.147196471240136 ], [ -114.442913860786007, 36.127689635568231 ], [ -114.554779095678725, 36.16052654906099 ], [ -114.636834759916212, 36.141312681934721 ], [ -114.721185345627191, 36.09272869697179 ], [ -114.719940227959114, 36.03887127548893 ], [ -114.741278119289746, 36.013627134784429 ], [ -114.73956913490764, 35.985795103161479 ], [ -114.666815227840459, 35.87392986916808 ], [ -114.693475385280806, 35.822416196949916 ], [ -114.694549602981795, 35.767069517943867 ], [ -114.645062299385586, 35.630643735919648 ], [ -114.646502728218309, 35.565482603439364 ], [ -114.667620891790705, 35.51704510274925 ], [ -114.590887493662876, 35.352884947382393 ], [ -114.571942181186671, 35.212552915984247 ], [ -114.581805463351429, 35.151346861568413 ], [ -114.635516399662094, 35.137186705002421 ], [ -114.611590619211654, 35.082572447360519 ], [ -114.638861126739585, 35.04780682172742 ], [ -114.62821659631885, 35.003568540755509 ], [ -116.659539837993123, 36.588920103080284 ], [ -118.126214641792274, 37.691337096329903 ], [ -120.000018352664824, 38.999222837763739 ], [ -120.000750774928292, 41.999540221404061 ], [ -114.042547649554365, 42.000077329804924 ] ] ] } },
{ "type": "Feature", "properties": { "STUSPS": "CO", "NAME": "Colorado" }, "geometry": { "type": "Polygon", "coordinates": [ [ [ -109.046331829550297, 40.999833189250239 ], [ -102.051800580432428, 40.99958904939507 ], [ -102.039569135107456, 36.999808775254735 ], [ -109.046624798995254, 36.999808775254735 ], [ -109.046331829550297, 40.999833189250239 ] ] ] } }
]
}
